[{"OBJECT_NAME":"STARLINK-5747","OBJECT_ID":"2023-020F","EPOCH":"2026-03-09T04:45:28.037952","MEAN_MOTION":15.02535141,"ECCENTRICITY":0.00013341,"INCLINATION":43.0059,"RA_OF_ASC_NODE":7.4555,"ARG_OF_PERICENTER":267.4979,"MEAN_ANOMALY":92.5711,"EPHEMERIS_TYPE":0,"CLASSIFICATION_TYPE":"U","NORAD_CAT_ID":55574,"ELEMENT_SET_NO":999,"REV_AT_EPOCH":16884,"BSTAR":-2.6674672e-5,"MEAN_MOTION_DOT":-5.64e-6,"MEAN_MOTION_DDOT":0},{"OBJECT_NAME":"SL-24 DEB","OBJECT_ID":"2006-029C","EPOCH":"2026-03-09T21:47:25.301472","MEAN_MOTION":13.35098468,"ECCENTRICITY":0.08212164,"INCLINATION":64.5748,"RA_OF_ASC_NODE":270.8752,"ARG_OF_PERICENTER":290.3345,"MEAN_ANOMALY":61.134,"EPHEMERIS_TYPE":0,"CLASSIFICATION_TYPE":"U","NORAD_CAT_ID":29256,"ELEMENT_SET_NO":999,"REV_AT_EPOCH":95739,"BSTAR":5.8382867e-5,"MEAN_MOTION_DOT":1.05e-6,"MEAN_MOTION_DDOT":0}]
